{"type":"FeatureCollection","features":[{"type":"Feature","properties":{"name":"Ukraine"},"geometry":{"type":"Polygon","coordinates":[[[33.192,52.374],[33.168,52.342],[33.116,52.339],[33.066,52.303],[33.063,52.329],[32.997,52.29],[32.953,52.268],[32.888,52.248],[32.885,52.272],[32.835,52.273],[32.709,52.25],[32.654,52.283],[32.599,52.303],[32.574,52.307],[32.55,52.33],[32.489,52.324],[32.434,52.324],[32.39,52.337],[32.36,52.33],[32.371,52.275],[32.401,52.248],[32.33,52.24],[32.333,52.204],[32.346,52.179],[32.327,52.147],[32.377,52.145],[32.33,52.125],[32.278,52.095],[32.195,52.068],[32.151,52.063],[32.108,52.036],[31.989,52.049],[31.932,52.049],[31.945,52.074],[31.874,52.108],[31.808,52.098],[31.784,52.114],[31.758,52.107],[31.716,52.096],[31.701,52.106],[31.673,52.112],[31.603,52.115],[31.51,52.125],[31.474,52.114],[31.454,52.121],[31.443,52.14],[31.395,52.142],[31.375,52.132],[31.381,52.12],[31.364,52.115],[31.32,52.104],[31.308,52.086],[31.309,52.078],[31.294,52.053],[31.245,52.041],[31.21,52.048],[31.199,52.069],[31.147,52.079],[31.129,52.102],[31.111,52.096],[31.086,52.089],[31.055,52.089],[30.98,52.075],[30.958,52.08],[30.954,52.088],[30.94,52.087],[30.944,52.074],[30.928,52.072],[30.932,52.061],[30.941,52.05],[30.928,52.038],[30.931,52.026],[30.935,52.02],[30.931,52.011],[30.917,52.013],[30.91,52.008],[30.892,52.002],[30.886,51.998],[30.89,51.993],[30.899,51.99],[30.901,51.985],[30.886,51.983],[30.879,51.983],[30.877,51.977],[30.881,51.972],[30.875,51.965],[30.86,51.966],[30.852,51.969],[30.842,51.961],[30.831,51.959],[30.826,51.956],[30.829,51.951],[30.816,51.952],[30.809,51.953],[30.802,51.948],[30.804,51.932],[30.818,51.918],[30.796,51.904],[30.794,51.895],[30.779,51.895],[30.761,51.899],[30.746,51.9],[30.735,51.898],[30.724,51.885],[30.715,51.873],[30.695,51.862],[30.682,51.825],[30.663,51.82],[30.654,51.815],[30.659,51.802],[30.662,51.792],[30.651,51.784],[30.634,51.781],[30.621,51.773],[30.604,51.764],[30.608,51.758],[30.627,51.762],[30.639,51.758],[30.64,51.75],[30.629,51.74],[30.616,51.73],[30.619,51.716],[30.612,51.707],[30.595,51.706],[30.575,51.708],[30.56,51.706],[30.553,51.698],[30.56,51.69],[30.571,51.676],[30.567,51.663],[30.572,51.652],[30.574,51.645],[30.557,51.64],[30.539,51.64],[30.538,51.634],[30.544,51.628],[30.55,51.623],[30.542,51.62],[30.529,51.621],[30.525,51.614],[30.527,51.603],[30.516,51.601],[30.504,51.601],[30.501,51.593],[30.512,51.589],[30.524,51.586],[30.538,51.581],[30.547,51.575],[30.537,51.572],[30.523,51.572],[30.522,51.564],[30.527,51.554],[30.535,51.546],[30.542,51.539],[30.557,51.547],[30.564,51.551],[30.575,51.545],[30.579,51.539],[30.575,51.532],[30.566,51.518],[30.562,51.507],[30.57,51.502],[30.576,51.495],[30.58,51.486],[30.586,51.474],[30.599,51.47],[30.61,51.468],[30.616,51.464],[30.608,51.456],[30.59,51.453],[30.573,51.448],[30.573,51.438],[30.584,51.423],[30.593,51.423],[30.605,51.428],[30.614,51.423],[30.647,51.372],[30.633,51.364],[30.628,51.355],[30.639,51.347],[30.647,51.342],[30.641,51.332],[30.615,51.329],[30.599,51.319],[30.588,51.308],[30.603,51.307],[30.605,51.304],[30.595,51.302],[30.597,51.298],[30.605,51.298],[30.612,51.305],[30.61,51.292],[30.608,51.282],[30.597,51.277],[30.579,51.275],[30.567,51.268],[30.56,51.256],[30.493,51.278],[30.452,51.272],[30.446,51.28],[30.459,51.29],[30.454,51.298],[30.454,51.306],[30.43,51.304],[30.393,51.309],[30.381,51.32],[30.341,51.349],[30.316,51.358],[30.356,51.377],[30.337,51.424],[30.314,51.431],[30.277,51.463],[30.235,51.487],[30.202,51.491],[30.17,51.51],[30.159,51.508],[30.157,51.487],[30.125,51.499],[30.124,51.505],[30.116,51.502],[30.117,51.49],[30.103,51.487],[30.02,51.504],[30.012,51.503],[30.011,51.494],[29.99,51.483],[29.978,51.482],[29.97,51.483],[29.966,51.476],[29.955,51.469],[29.94,51.472],[29.939,51.483],[29.917,51.49],[29.898,51.485],[29.88,51.481],[29.879,51.474],[29.869,51.456],[29.871,51.447],[29.846,51.448],[29.838,51.455],[29.81,51.447],[29.802,51.455],[29.786,51.456],[29.79,51.44],[29.757,51.449],[29.736,51.457],[29.733,51.468],[29.726,51.489],[29.737,51.496],[29.733,51.506],[29.733,51.511],[29.736,51.517],[29.731,51.528],[29.707,51.527],[29.698,51.519],[29.679,51.514],[29.663,51.509],[29.667,51.501],[29.654,51.503],[29.643,51.501],[29.637,51.496],[29.624,51.503],[29.617,51.493],[29.603,51.491],[29.601,51.48],[29.598,51.472],[29.586,51.467],[29.57,51.459],[29.555,51.472],[29.534,51.48],[29.527,51.46],[29.512,51.448],[29.517,51.434],[29.514,51.419],[29.508,51.422],[29.49,51.396],[29.44,51.406],[29.411,51.41],[29.38,51.402],[29.358,51.385],[29.333,51.382],[29.321,51.377],[29.311,51.387],[29.309,51.424],[29.298,51.449],[29.287,51.457],[29.268,51.458],[29.261,51.476],[29.243,51.494],[29.249,51.523],[29.258,51.529],[29.254,51.547],[29.253,51.555],[29.247,51.567],[29.207,51.564],[29.196,51.58],[29.195,51.599],[29.174,51.612],[29.179,51.619],[29.156,51.627],[29.168,51.649],[29.133,51.651],[29.113,51.656],[29.091,51.642],[29.087,51.63],[29.061,51.624],[29.021,51.591],[28.995,51.57],[28.971,51.572],[28.962,51.591],[28.92,51.582],[28.879,51.585],[28.871,51.573],[28.855,51.565],[28.82,51.557],[28.791,51.524],[28.763,51.485],[28.768,51.47],[28.778,51.448],[28.767,51.437],[28.75,51.416],[28.741,51.426],[28.734,51.434],[28.734,51.465],[28.716,51.459],[28.715,51.448],[28.694,51.441],[28.681,51.443],[28.64,51.55],[28.651,51.558],[28.636,51.558],[28.628,51.561],[28.653,51.566],[28.651,51.568],[28.638,51.567],[28.624,51.569],[28.589,51.572],[28.554,51.572],[28.551,51.58],[28.52,51.582],[28.51,51.589],[28.458,51.59],[28.375,51.548],[28.358,51.541],[28.346,51.54],[28.354,51.552],[28.349,51.564],[28.33,51.58],[28.278,51.622],[28.25,51.619],[28.251,51.626],[28.265,51.674],[28.254,51.68],[28.164,51.643],[28.161,51.621],[28.138,51.606],[28.127,51.607],[28.107,51.583],[28.081,51.574],[28.067,51.576],[28.043,51.564],[28.016,51.562],[27.938,51.557],[27.957,51.575],[27.972,51.595],[27.95,51.59],[27.933,51.577],[27.917,51.583],[27.919,51.603],[27.901,51.615],[27.875,51.622],[27.85,51.619],[27.832,51.605],[27.82,51.582],[27.835,51.562],[27.841,51.546],[27.84,51.538],[27.807,51.528],[27.789,51.523],[27.772,51.5],[27.759,51.484],[27.749,51.472],[27.727,51.478],[27.708,51.494],[27.686,51.498],[27.671,51.511],[27.662,51.516],[27.677,51.522],[27.677,51.541],[27.706,51.557],[27.721,51.573],[27.726,51.593],[27.72,51.602],[27.687,51.607],[27.67,51.611],[27.643,51.613],[27.625,51.606],[27.599,51.612],[27.575,51.621],[27.547,51.633],[27.532,51.621],[27.513,51.632],[27.509,51.584],[27.476,51.62],[27.424,51.613],[27.366,51.617],[27.232,51.607],[27.259,51.664],[27.21,51.668],[27.199,51.775],[26.987,51.772],[26.949,51.746],[26.872,51.76],[26.778,51.772],[26.696,51.826],[26.594,51.823],[26.545,51.806],[26.485,51.801],[26.402,51.843],[26.383,51.875],[26.298,51.867],[26.169,51.868],[26.092,51.907],[26.009,51.931],[25.927,51.923],[25.845,51.931],[25.779,51.953],[25.776,51.923],[25.65,51.921],[25.581,51.936],[25.521,51.945],[25.482,51.928],[25.337,51.936],[25.246,51.977],[25.172,51.968],[25.084,51.95],[24.933,51.897],[24.905,51.916],[24.839,51.901],[24.798,51.913],[24.746,51.884],[24.658,51.902],[24.567,51.897],[24.367,51.875],[24.287,51.818],[24.309,51.75],[24.268,51.716],[24.123,51.666],[24.074,51.619],[23.991,51.584],[23.94,51.594],[23.884,51.594],[23.867,51.603],[23.914,51.631],[23.863,51.641],[23.783,51.639],[23.779,51.666],[23.671,51.647],[23.601,51.622],[23.656,51.582],[23.631,51.552],[23.676,51.504],[23.643,51.503],[23.618,51.507],[23.622,51.496],[23.639,51.486],[23.66,51.489],[23.673,51.472],[23.649,51.457],[23.651,51.447],[23.686,51.443],[23.678,51.431],[23.702,51.404],[23.681,51.39],[23.688,51.371],[23.658,51.355],[23.637,51.326],[23.65,51.289],[23.682,51.291],[23.708,51.278],[23.725,51.26],[23.742,51.215],[23.812,51.182],[23.823,51.164],[23.865,51.154],[23.869,51.131],[23.849,51.129],[23.877,51.08],[23.908,51.075],[23.927,51.015],[23.919,51.007],[23.954,50.994],[23.969,50.978],[23.971,50.949],[24.002,50.929],[24.054,50.894],[24.096,50.882],[24.144,50.869],[24.121,50.843],[24.069,50.835],[24.02,50.84],[23.986,50.835],[23.958,50.796],[23.989,50.768],[24.019,50.769],[24.022,50.723],[24.077,50.716],[24.068,50.681],[24.09,50.651],[24.088,50.545],[24.041,50.451],[24.002,50.414],[23.777,50.4],[23.695,50.363],[23.678,50.331],[23.612,50.307],[23.351,50.142],[23.231,50.054],[23.055,49.895],[22.802,49.689],[22.717,49.593],[22.648,49.531],[22.679,49.497],[22.698,49.475],[22.75,49.341],[22.736,49.25],[22.72,49.232],[22.742,49.209],[22.717,49.169],[22.75,49.178],[22.755,49.155],[22.797,49.155],[22.797,49.138],[22.838,49.11],[22.864,49.112],[22.868,49.096],[22.898,49.091],[22.865,49.066],[22.892,49.008],[22.869,49.003],[22.847,49.003],[22.833,49.025],[22.814,49.025],[22.808,49.034],[22.765,49.053],[22.755,49.043],[22.72,49.052],[22.698,49.05],[22.683,49.039],[22.64,49.059],[22.628,49.079],[22.605,49.084],[22.599,49.094],[22.582,49.097],[22.565,49.088],[22.557,49.078],[22.554,49.029],[22.542,49.022],[22.547,49.008],[22.524,48.998],[22.504,49.0],[22.485,48.992],[22.474,48.975],[22.431,48.932],[22.436,48.914],[22.425,48.886],[22.392,48.869],[22.383,48.828],[22.393,48.81],[22.389,48.796],[22.378,48.783],[22.352,48.767],[22.349,48.753],[22.37,48.735],[22.352,48.711],[22.348,48.687],[22.306,48.675],[22.284,48.66],[22.259,48.649],[22.245,48.627],[22.193,48.608],[22.168,48.578],[22.162,48.557],[22.159,48.523],[22.142,48.44],[22.137,48.42],[22.145,48.404],[22.156,48.402],[22.155,48.409],[22.183,48.415],[22.21,48.426],[22.229,48.412],[22.252,48.411],[22.265,48.41],[22.256,48.393],[22.24,48.388],[22.267,48.361],[22.318,48.353],[22.321,48.338],[22.314,48.326],[22.32,48.323],[22.321,48.315],[22.337,48.308],[22.339,48.28],[22.36,48.266],[22.369,48.245],[22.384,48.234],[22.401,48.249],[22.42,48.251],[22.42,48.248],[22.431,48.247],[22.433,48.252],[22.449,48.244],[22.468,48.243],[22.47,48.247],[22.488,48.255],[22.503,48.247],[22.498,48.24],[22.515,48.238],[22.513,48.227],[22.535,48.209],[22.57,48.197],[22.569,48.186],[22.56,48.183],[22.576,48.16],[22.598,48.146],[22.588,48.142],[22.596,48.136],[22.594,48.126],[22.599,48.117],[22.591,48.108],[22.621,48.105],[22.635,48.096],[22.676,48.091],[22.705,48.11],[22.713,48.111],[22.72,48.115],[22.729,48.114],[22.735,48.12],[22.744,48.117],[22.757,48.121],[22.759,48.115],[22.764,48.11],[22.778,48.111],[22.771,48.122],[22.79,48.116],[22.799,48.123],[22.806,48.121],[22.802,48.107],[22.81,48.107],[22.82,48.118],[22.831,48.11],[22.83,48.096],[22.837,48.079],[22.846,48.083],[22.86,48.077],[22.861,48.057],[22.87,48.052],[22.881,48.055],[22.881,48.036],[22.867,48.022],[22.864,48.012],[22.838,47.992],[22.844,47.984],[22.839,47.981],[22.85,47.982],[22.859,47.979],[22.858,47.976],[22.861,47.977],[22.861,47.974],[22.867,47.974],[22.867,47.977],[22.873,47.974],[22.872,47.97],[22.873,47.967],[22.877,47.968],[22.879,47.964],[22.892,47.967],[22.892,47.963],[22.89,47.962],[22.893,47.961],[22.891,47.957],[22.896,47.957],[22.895,47.955],[22.897,47.955],[22.897,47.954],[22.898,47.957],[22.946,47.965],[22.946,47.967],[22.938,47.994],[22.922,48.004],[22.922,48.014],[22.928,48.019],[22.945,48.017],[22.962,48.008],[22.966,48.011],[22.982,48.007],[22.999,47.995],[23.009,47.995],[23.019,47.99],[23.031,47.999],[23.069,48.008],[23.086,48.005],[23.097,48.014],[23.091,48.018],[23.106,48.033],[23.102,48.042],[23.107,48.055],[23.107,48.065],[23.118,48.075],[23.122,48.091],[23.133,48.096],[23.152,48.113],[23.178,48.119],[23.189,48.096],[23.246,48.092],[23.265,48.1],[23.272,48.084],[23.288,48.075],[23.279,48.057],[23.297,48.043],[23.338,48.036],[23.332,48.022],[23.379,48.008],[23.42,47.993],[23.449,47.983],[23.498,47.968],[23.531,48.019],[23.571,48.003],[23.622,48.004],[23.67,47.987],[23.737,47.993],[23.802,47.983],[23.835,47.967],[23.857,47.936],[23.87,47.932],[23.884,47.943],[23.939,47.946],[23.951,47.963],[23.975,47.965],[23.99,47.961],[24.013,47.966],[24.031,47.949],[24.062,47.953],[24.098,47.937],[24.111,47.916],[24.148,47.913],[24.168,47.919],[24.198,47.914],[24.221,47.898],[24.258,47.906],[24.289,47.908],[24.321,47.926],[24.346,47.914],[24.379,47.926],[24.395,47.954],[24.437,47.969],[24.487,47.959],[24.51,47.955],[24.536,47.962],[24.559,47.961],[24.572,47.972],[24.603,47.949],[24.622,47.952],[24.641,47.928],[24.669,47.896],[24.668,47.87],[24.703,47.85],[24.705,47.84],[24.735,47.843],[24.752,47.83],[24.77,47.839],[24.784,47.822],[24.826,47.82],[24.82,47.805],[24.855,47.765],[24.879,47.75],[24.885,47.725],[24.951,47.729],[24.99,47.727],[25.005,47.734],[25.037,47.726],[25.054,47.746],[25.069,47.742],[25.118,47.757],[25.115,47.769],[25.147,47.793],[25.163,47.788],[25.175,47.798],[25.17,47.81],[25.185,47.825],[25.199,47.839],[25.201,47.85],[25.213,47.858],[25.224,47.862],[25.225,47.883],[25.235,47.895],[25.264,47.893],[25.277,47.894],[25.307,47.915],[25.352,47.916],[25.457,47.926],[25.538,47.936],[25.591,47.938],[25.628,47.95],[25.658,47.948],[25.692,47.945],[25.718,47.943],[25.728,47.946],[25.742,47.941],[25.778,47.94],[25.818,47.955],[25.823,47.964],[25.862,47.97],[25.889,47.961],[25.906,47.966],[25.917,47.978],[25.943,47.976],[25.959,47.971],[26.062,47.988],[26.104,47.978],[26.128,47.986],[26.141,47.985],[26.187,47.995],[26.202,48.01],[26.213,48.054],[26.27,48.082],[26.288,48.112],[26.305,48.142],[26.338,48.156],[26.331,48.179],[26.336,48.184],[26.351,48.183],[26.349,48.191],[26.36,48.184],[26.374,48.196],[26.386,48.194],[26.38,48.188],[26.398,48.19],[26.423,48.2],[26.438,48.193],[26.436,48.201],[26.456,48.205],[26.458,48.214],[26.472,48.217],[26.487,48.215],[26.498,48.217],[26.517,48.212],[26.524,48.213],[26.53,48.211],[26.547,48.216],[26.551,48.224],[26.575,48.219],[26.57,48.234],[26.58,48.244],[26.588,48.246],[26.599,48.237],[26.621,48.239],[26.617,48.25],[26.627,48.247],[26.629,48.258],[26.63,48.26],[26.626,48.262],[26.619,48.274],[26.642,48.289],[26.649,48.297],[26.65,48.305],[26.675,48.318],[26.676,48.325],[26.697,48.327],[26.683,48.356],[26.693,48.358],[26.7,48.35],[26.716,48.337],[26.741,48.313],[26.759,48.321],[26.761,48.318],[26.761,48.312],[26.766,48.304],[26.796,48.291],[26.812,48.292],[26.816,48.298],[26.825,48.306],[26.828,48.324],[26.825,48.327],[26.822,48.343],[26.82,48.346],[26.808,48.352],[26.794,48.344],[26.778,48.352],[26.763,48.356],[26.762,48.359],[26.713,48.405],[26.727,48.411],[26.751,48.399],[26.767,48.41],[26.775,48.421],[26.796,48.421],[26.849,48.414],[26.871,48.421],[26.888,48.41],[26.899,48.398],[26.892,48.386],[26.928,48.363],[26.929,48.371],[26.991,48.357],[27.0,48.362],[27.001,48.38],[27.026,48.384],[27.048,48.375],[27.05,48.388],[27.046,48.391],[27.047,48.401],[27.038,48.406],[27.041,48.41],[27.025,48.419],[27.014,48.422],[27.025,48.426],[27.038,48.421],[27.051,48.424],[27.063,48.42],[27.065,48.426],[27.072,48.433],[27.083,48.434],[27.09,48.413],[27.109,48.397],[27.109,48.393],[27.121,48.381],[27.139,48.373],[27.161,48.38],[27.166,48.378],[27.192,48.394],[27.199,48.389],[27.215,48.389],[27.236,48.371],[27.263,48.38],[27.287,48.369],[27.297,48.411],[27.313,48.42],[27.309,48.428],[27.321,48.443],[27.338,48.44],[27.339,48.449],[27.352,48.442],[27.35,48.45],[27.38,48.437],[27.376,48.43],[27.377,48.417],[27.384,48.411],[27.416,48.412],[27.447,48.409],[27.467,48.45],[27.492,48.459],[27.506,48.457],[27.58,48.492],[27.605,48.489],[27.589,48.462],[27.634,48.446],[27.678,48.438],[27.702,48.451],[27.751,48.458],[27.815,48.43],[27.822,48.418],[27.876,48.404],[27.878,48.384],[27.896,48.359],[27.968,48.324],[28.036,48.327],[28.083,48.312],[28.092,48.288],[28.078,48.248],[28.087,48.235],[28.109,48.233],[28.14,48.247],[28.144,48.263],[28.186,48.253],[28.183,48.237],[28.187,48.21],[28.211,48.205],[28.306,48.243],[28.318,48.232],[28.347,48.248],[28.369,48.232],[28.359,48.188],[28.312,48.164],[28.304,48.142],[28.341,48.134],[28.361,48.138],[28.383,48.173],[28.433,48.174],[28.433,48.137],[28.422,48.122],[28.465,48.073],[28.503,48.065],[28.496,48.084],[28.499,48.121],[28.521,48.138],[28.506,48.151],[28.536,48.158],[28.579,48.183],[28.579,48.167],[28.59,48.173],[28.619,48.155],[28.643,48.153],[28.648,48.145],[28.683,48.145],[28.688,48.125],[28.706,48.13],[28.718,48.127],[28.75,48.134],[28.769,48.125],[28.79,48.126],[28.804,48.134],[28.812,48.125],[28.838,48.128],[28.858,48.104],[28.851,48.079],[28.834,48.074],[28.847,48.07],[28.85,48.061],[28.837,48.034],[28.872,48.015],[28.902,48.011],[28.88,48.002],[28.925,47.96],[28.962,47.978],[29.03,47.946],[29.042,47.948],[29.063,47.942],[29.087,47.949],[29.079,47.972],[29.097,47.961],[29.094,47.974],[29.088,47.978],[29.103,47.982],[29.132,47.984],[29.127,47.993],[29.174,47.993],[29.182,47.965],[29.202,47.885],[29.213,47.886],[29.221,47.896],[29.221,47.886],[29.283,47.89],[29.27,47.877],[29.235,47.863],[29.209,47.839],[29.197,47.821],[29.219,47.798],[29.235,47.798],[29.246,47.811],[29.278,47.803],[29.25,47.752],[29.215,47.738],[29.205,47.719],[29.231,47.682],[29.22,47.68],[29.217,47.659],[29.212,47.657],[29.21,47.643],[29.233,47.642],[29.22,47.627],[29.212,47.628],[29.216,47.613],[29.202,47.602],[29.187,47.588],[29.183,47.571],[29.171,47.568],[29.165,47.571],[29.119,47.555],[29.15,47.507],[29.185,47.518],[29.187,47.515],[29.184,47.494],[29.191,47.487],[29.185,47.478],[29.159,47.459],[29.161,47.455],[29.189,47.466],[29.193,47.457],[29.184,47.447],[29.186,47.438],[29.189,47.429],[29.193,47.427],[29.241,47.462],[29.244,47.415],[29.279,47.436],[29.317,47.449],[29.338,47.373],[29.362,47.373],[29.393,47.38],[29.397,47.354],[29.384,47.345],[29.397,47.301],[29.421,47.304],[29.428,47.292],[29.445,47.294],[29.447,47.301],[29.486,47.308],[29.487,47.334],[29.491,47.355],[29.524,47.366],[29.574,47.37],[29.599,47.257],[29.553,47.251],[29.581,47.135],[29.495,47.129],[29.497,47.113],[29.515,47.111],[29.533,47.077],[29.548,47.074],[29.55,47.093],[29.612,47.099],[29.63,47.046],[29.603,47.042],[29.595,46.964],[29.561,46.958],[29.573,46.941],[29.638,46.954],[29.651,46.918],[29.717,46.931],[29.724,46.918],[29.75,46.863],[29.85,46.878],[29.881,46.885],[29.887,46.85],[29.907,46.823],[29.951,46.84],[29.982,46.818],[29.941,46.805],[29.969,46.755],[29.971,46.687],[29.942,46.638],[29.96,46.602],[29.936,46.574],[29.945,46.558],[29.877,46.547],[29.881,46.541],[29.888,46.545],[29.901,46.534],[29.897,46.528],[29.912,46.52],[29.908,46.513],[29.925,46.511],[29.927,46.505],[29.943,46.502],[29.939,46.494],[29.954,46.497],[29.959,46.509],[29.958,46.491],[29.975,46.501],[29.986,46.509],[29.992,46.496],[30.002,46.495],[29.991,46.484],[30.002,46.471],[30.024,46.469],[29.998,46.465],[30.002,46.454],[30.025,46.454],[30.026,46.442],[30.068,46.442],[30.056,46.432],[30.075,46.424],[30.082,46.433],[30.095,46.426],[30.093,46.439],[30.107,46.428],[30.114,46.431],[30.135,46.418],[30.133,46.412],[30.149,46.416],[30.153,46.43],[30.16,46.427],[30.162,46.414],[30.105,46.388],[30.091,46.382],[30.069,46.399],[30.057,46.4],[30.041,46.393],[30.025,46.383],[30.0,46.39],[29.988,46.383],[29.979,46.386],[29.939,46.401],[29.889,46.373],[29.888,46.353],[29.807,46.384],[29.825,46.395],[29.797,46.416],[29.79,46.42],[29.777,46.455],[29.767,46.453],[29.747,46.471],[29.727,46.465],[29.741,46.444],[29.735,46.436],[29.687,46.426],[29.677,46.44],[29.66,46.435],[29.677,46.361],[29.605,46.355],[29.601,46.363],[29.579,46.361],[29.569,46.408],[29.559,46.418],[29.518,46.419],[29.495,46.429],[29.481,46.439],[29.481,46.442],[29.507,46.458],[29.446,46.497],[29.387,46.448],[29.396,46.427],[29.394,46.426],[29.374,46.456],[29.377,46.461],[29.375,46.47],[29.351,46.504],[29.332,46.496],[29.338,46.482],[29.334,46.478],[29.336,46.473],[29.309,46.465],[29.317,46.45],[29.306,46.446],[29.319,46.414],[29.303,46.41],[29.296,46.417],[29.265,46.405],[29.266,46.395],[29.243,46.376],[29.206,46.387],[29.246,46.418],[29.232,46.436],[29.231,46.46],[29.221,46.464],[29.258,46.487],[29.25,46.501],[29.239,46.501],[29.235,46.559],[29.161,46.544],[29.164,46.516],[29.063,46.511],[29.042,46.506],[29.035,46.494],[28.981,46.488],[28.983,46.478],[29.026,46.479],[29.025,46.464],[28.932,46.459],[28.989,46.343],[29.0,46.317],[28.986,46.318],[28.95,46.261],[29.066,46.196],[28.952,46.095],[29.007,46.048],[28.979,46.005],[28.779,45.97],[28.779,45.961],[28.759,45.956],[28.764,45.931],[28.757,45.927],[28.784,45.833],[28.696,45.818],[28.709,45.779],[28.625,45.766],[28.58,45.772],[28.596,45.737],[28.584,45.729],[28.566,45.726],[28.558,45.736],[28.534,45.733],[28.521,45.737],[28.505,45.7],[28.479,45.682],[28.485,45.661],[28.515,45.664],[28.545,45.581],[28.492,45.571],[28.515,45.501],[28.427,45.487],[28.427,45.525],[28.415,45.516],[28.306,45.547],[28.255,45.516],[28.227,45.485],[28.207,45.469],[28.214,45.467],[28.272,45.451],[28.292,45.429],[28.288,45.404],[28.301,45.375],[28.326,45.342],[28.353,45.319],[28.549,45.257],[28.582,45.248],[28.665,45.241],[28.707,45.224],[28.795,45.24],[28.786,45.257],[28.762,45.262],[28.753,45.285],[28.797,45.293],[28.806,45.311],[28.783,45.324],[28.81,45.336],[28.843,45.314],[28.873,45.316],[28.922,45.283],[28.956,45.281],[28.946,45.31],[28.972,45.334],[29.034,45.358],[29.137,45.382],[29.174,45.402],[29.207,45.423],[29.246,45.431],[29.281,45.428],[29.323,45.447],[29.361,45.433],[29.426,45.443],[29.476,45.424],[29.545,45.41],[29.589,45.387],[29.652,45.337],[29.681,45.272],[29.663,45.254],[29.674,45.219],[29.691,45.198],[29.748,45.203],[29.792,45.25],[29.814,45.341],[29.811,45.406],[29.811,45.472],[29.754,45.506],[29.677,45.501],[29.688,45.529],[29.814,45.603],[30.056,45.739],[30.27,45.89],[30.443,46.027],[30.622,46.199],[30.701,46.29],[30.751,46.339],[30.789,46.415],[30.775,46.462],[30.803,46.512],[30.981,46.563],[31.196,46.593],[31.36,46.589],[31.503,46.563],[31.547,46.521],[31.734,46.372],[31.781,46.366],[31.797,46.385],[31.753,46.438],[31.737,46.468],[31.94,46.425],[31.992,46.432],[32.02,46.4],[31.965,46.368],[31.759,46.341],[31.731,46.303],[31.761,46.262],[31.83,46.256],[31.918,46.256],[32.047,46.222],[32.143,46.172],[31.72,46.239],[31.679,46.279],[31.613,46.286],[31.569,46.345],[31.542,46.394],[31.503,46.389],[31.481,46.317],[31.566,46.241],[31.74,46.191],[32.182,46.119],[32.506,46.052],[32.739,46.016],[32.937,45.999],[33.072,45.999],[33.121,46.016],[33.028,46.048],[32.937,46.062],[32.783,46.052],[32.704,46.081],[32.948,46.085],[33.047,46.1],[33.159,46.108],[33.168,46.075],[33.228,46.058],[33.239,46.079],[33.283,46.06],[33.341,46.064],[33.404,46.016],[33.462,46.018],[33.541,46.02],[33.539,46.054],[33.577,46.048],[33.591,46.029],[33.591,45.972],[33.604,45.921],[33.53,45.877],[33.462,45.867],[33.387,45.825],[33.245,45.773],[33.201,45.792],[33.19,45.825],[33.151,45.819],[33.124,45.746],[32.879,45.658],[32.69,45.556],[32.462,45.456],[32.456,45.389],[32.451,45.346],[32.542,45.314],[32.671,45.3],[32.75,45.346],[32.885,45.342],[32.97,45.3],[33.124,45.196],[33.212,45.159],[33.261,45.124],[33.324,45.163],[33.412,45.163],[33.464,45.139],[33.56,45.05],[33.588,44.889],[33.549,44.864],[33.519,44.809],[33.536,44.68],[33.47,44.628],[33.344,44.602],[33.429,44.512],[33.492,44.479],[33.593,44.459],[33.593,44.424],[33.695,44.371],[33.799,44.377],[33.937,44.373],[34.129,44.41],[34.173,44.465],[34.33,44.524],[34.404,44.589],[34.492,44.696],[34.654,44.768],[34.805,44.794],[34.953,44.813],[35.005,44.799],[35.068,44.776],[35.14,44.809],[35.181,44.875],[35.269,44.906],[35.307,44.943],[35.37,44.928],[35.417,44.94],[35.401,44.98],[35.436,44.988],[35.439,45.025],[35.409,45.048],[35.458,45.083],[35.598,45.099],[35.75,45.039],[35.791,44.98],[35.945,44.986],[36.049,45.011],[36.269,45.019],[36.409,45.041],[36.488,45.091],[36.45,45.143],[36.45,45.215],[36.469,45.271],[36.505,45.292],[36.508,45.327],[36.584,45.327],[36.642,45.346],[36.664,45.389],[36.642,45.427],[36.587,45.458],[36.475,45.485],[36.34,45.514],[36.183,45.493],[36.043,45.458],[36.021,45.402],[35.945,45.404],[35.903,45.441],[35.87,45.495],[35.791,45.485],[35.692,45.42],[35.689,45.36],[35.527,45.304],[35.349,45.406],[35.189,45.57],[35.024,45.748],[34.895,45.982],[34.854,46.092],[34.854,46.155],[34.901,46.205],[35.063,46.243],[35.129,46.3],[35.214,46.349],[35.217,46.3],[35.14,46.193],[35.005,46.161],[34.948,46.087],[34.969,46.048],[35.126,46.083],[35.219,46.147],[35.428,46.389],[35.519,46.438],[35.648,46.491],[35.848,46.6],[35.994,46.638],[36.161,46.646],[36.208,46.625],[36.17,46.576],[36.087,46.517],[36.065,46.47],[36.175,46.476],[36.31,46.606],[36.367,46.693],[36.593,46.742],[36.727,46.757],[36.782,46.704],[36.711,46.632],[36.744,46.61],[36.832,46.67],[36.876,46.755],[36.977,46.834],[37.252,46.92],[37.279,46.898],[37.263,46.866],[37.288,46.849],[37.463,46.988],[37.576,47.065],[37.724,47.066],[37.897,47.085],[37.991,47.076],[38.079,47.093],[38.095,47.063],[38.068,47.031],[38.073,47.012],[38.156,47.038],[38.228,47.113],[38.237,47.21],[38.234,47.229],[38.286,47.241],[38.289,47.257],[38.331,47.265],[38.331,47.296],[38.335,47.31],[38.221,47.305],[38.228,47.331],[38.245,47.357],[38.25,47.368],[38.287,47.375],[38.3,47.395],[38.3,47.475],[38.282,47.479],[38.294,47.507],[38.283,47.542],[38.311,47.547],[38.311,47.58],[38.348,47.577],[38.352,47.614],[38.462,47.616],[38.458,47.641],[38.62,47.645],[38.631,47.668],[38.666,47.67],[38.666,47.699],[38.731,47.699],[38.739,47.684],[38.773,47.686],[38.773,47.732],[38.791,47.737],[38.793,47.78],[38.787,47.79],[38.79,47.815],[38.827,47.818],[38.833,47.848],[38.849,47.864],[38.897,47.872],[38.959,47.871],[39.08,47.87],[39.11,47.845],[39.159,47.849],[39.224,47.853],[39.249,47.865],[39.389,47.87],[39.413,47.829],[39.446,47.86],[39.477,47.858],[39.529,47.828],[39.567,47.834],[39.644,47.833],[39.74,47.829],[39.762,47.847],[39.766,47.87],[39.794,47.872],[39.798,47.924],[39.82,47.96],[39.81,47.999],[39.779,48.04],[39.886,48.044],[39.836,48.065],[39.872,48.083],[39.872,48.119],[39.904,48.141],[39.908,48.176],[39.938,48.181],[39.944,48.227],[40.009,48.224],[40.008,48.243],[40.022,48.256],[39.99,48.318],[39.963,48.303],[39.941,48.29],[39.917,48.27],[39.904,48.298],[39.879,48.307],[39.839,48.311],[39.842,48.333],[39.922,48.345],[39.946,48.353],[39.935,48.366],[39.939,48.387],[39.92,48.376],[39.906,48.391],[39.917,48.399],[39.906,48.407],[39.915,48.421],[39.889,48.442],[39.891,48.449],[39.843,48.472],[39.847,48.504],[39.871,48.503],[39.854,48.568],[39.801,48.59],[39.755,48.581],[39.729,48.589],[39.672,48.591],[39.662,48.611],[39.695,48.644],[39.711,48.663],[39.702,48.673],[39.725,48.685],[39.709,48.706],[39.713,48.724],[39.724,48.733],[39.736,48.75],[39.728,48.761],[39.747,48.772],[39.769,48.767],[39.776,48.79],[39.786,48.801],[39.788,48.822],[39.797,48.827],[39.802,48.843],[39.828,48.835],[39.953,48.797],[39.977,48.795],[40.079,48.87],[40.056,48.912],[40.03,48.915],[40.008,48.901],[39.992,48.867],[39.948,48.878],[39.926,48.895],[39.853,48.892],[39.836,48.904],[39.828,48.885],[39.809,48.912],[39.783,48.915],[39.777,48.939],[39.751,48.984],[39.727,48.978],[39.699,49.002],[39.674,48.991],[39.669,49.002],[39.684,49.023],[39.68,49.041],[39.694,49.052],[39.768,49.041],[39.806,49.059],[39.869,49.064],[39.939,49.057],[39.934,49.081],[40.025,49.176],[40.078,49.189],[40.137,49.239],[40.195,49.24],[40.232,49.261],[40.187,49.285],[40.191,49.347],[40.152,49.372],[40.1,49.401],[40.06,49.44],[40.031,49.456],[40.04,49.52],[40.17,49.566],[40.136,49.617],[40.073,49.6],[40.034,49.604],[39.949,49.594],[39.935,49.572],[39.887,49.558],[39.834,49.567],[39.81,49.558],[39.736,49.603],[39.657,49.618],[39.592,49.717],[39.608,49.732],[39.441,49.758],[39.375,49.74],[39.249,49.774],[39.194,49.893],[39.07,49.822],[38.944,49.804],[38.892,49.834],[38.911,49.863],[38.812,49.875],[38.713,49.925],[38.683,49.962],[38.73,49.988],[38.688,50.008],[38.653,49.953],[38.57,49.974],[38.518,49.962],[38.455,49.999],[38.408,49.985],[38.367,50.008],[38.312,50.094],[38.26,50.071],[38.18,50.082],[38.188,50.015],[38.221,49.976],[38.15,49.935],[38.09,49.934],[38.026,49.905],[38.032,49.941],[37.947,50.004],[37.881,50.062],[37.746,50.084],[37.625,50.193],[37.631,50.316],[37.576,50.31],[37.474,50.37],[37.466,50.43],[37.496,50.459],[37.392,50.43],[37.321,50.435],[37.282,50.393],[37.123,50.352],[36.928,50.349],[36.837,50.323],[36.689,50.263],[36.653,50.221],[36.562,50.249],[36.587,50.281],[36.516,50.293],[36.483,50.31],[36.45,50.31],[36.433,50.331],[36.376,50.295],[36.315,50.289],[36.277,50.323],[36.285,50.345],[36.194,50.4],[36.145,50.44],[36.057,50.449],[35.936,50.431],[35.887,50.438],[35.857,50.423],[35.826,50.428],[35.793,50.391],[35.739,50.354],[35.618,50.354],[35.59,50.396],[35.576,50.458],[35.508,50.478],[35.434,50.533],[35.423,50.569],[35.376,50.58],[35.431,50.608],[35.392,50.662],[35.483,50.66],[35.497,50.684],[35.469,50.693],[35.483,50.782],[35.445,50.785],[35.42,50.808],[35.423,50.855],[35.379,50.874],[35.395,50.912],[35.34,50.939],[35.343,50.974],[35.318,51.014],[35.398,51.022],[35.409,51.052],[35.321,51.081],[35.269,51.06],[35.206,51.05],[35.154,51.086],[35.175,51.102],[35.143,51.138],[35.121,51.172],[35.143,51.221],[35.077,51.229],[35.044,51.207],[35.0,51.231],[34.964,51.229],[34.871,51.188],[34.796,51.176],[34.689,51.188],[34.662,51.21],[34.659,51.238],[34.612,51.253],[34.571,51.236],[34.533,51.252],[34.492,51.241],[34.39,51.274],[34.313,51.236],[34.228,51.276],[34.253,51.298],[34.302,51.331],[34.335,51.367],[34.291,51.385],[34.233,51.408],[34.225,51.43],[34.264,51.451],[34.297,51.519],[34.258,51.545],[34.25,51.58],[34.214,51.587],[34.192,51.603],[34.17,51.64],[34.121,51.652],[34.088,51.667],[34.159,51.691],[34.299,51.71],[34.379,51.722],[34.431,51.73],[34.445,51.759],[34.412,51.778],[34.42,51.826],[34.31,51.88],[34.25,51.883],[34.253,51.919],[34.189,51.949],[34.198,51.973],[34.132,51.968],[34.135,52.007],[34.107,52.007],[34.099,52.049],[34.071,52.066],[34.102,52.09],[34.096,52.107],[34.118,52.137],[34.063,52.172],[34.063,52.194],[34.003,52.208],[33.992,52.231],[33.959,52.248],[33.934,52.287],[33.904,52.307],[33.854,52.315],[33.841,52.344],[33.824,52.362],[33.764,52.364],[33.665,52.342],[33.582,52.322],[33.552,52.322],[33.558,52.3],[33.497,52.315],[33.522,52.35],[33.459,52.359],[33.445,52.344],[33.401,52.366],[33.333,52.35],[33.192,52.374]]]}}]}